TRANSPORTER-16 OBJECT Y 
1 68438U 26067Y   26104.13751879  .00009887  00000+0  48952-3 0  9996
2 68438  97.4473  63.5581 0000717 260.0933 100.0220 15.17982976  2227
