{
  "norad_id": 68438,
  "name": "TRANSPORTER-16 OBJECT Y",
  "history": [
    {
      "epoch": "2026-04-14T03:18:01.623456Z",
      "apogee_km": 512.4313516917045,
      "perigee_km": 511.44331503230114,
      "latitude_deg": 7.198509951156763e-06,
      "longitude_deg": 171.73307650891238,
      "height_km": 515.1097608527192,
      "semi_major_axis_km": 6890.074333362003,
      "eccentricity": 7.17e-05,
      "inclination_deg": 97.4473,
      "raan_deg": 63.5581,
      "arg_perigee_deg": 260.0933,
      "mean_anomaly_deg": 100.022,
      "mean_motion_rev_day": 15.17982976
    }
  ]
}